{
    "links": {
        "self": "http://www.neowsapp.com/rest/v1/neo/3695650?api_key=iIulBulltgU6a56xZRHN4H3l9WmuAYTsLGpBGhQ2"
    },
    "id": "3695650",
    "neo_reference_id": "3695650",
    "name": "(2014 UE192)",
    "designation": "2014 UE192",
    "nasa_jpl_url": "http://ssd.jpl.nasa.gov/sbdb.cgi?sstr=3695650",
    "absolute_magnitude_h": 24.1,
    "estimated_diameter": {
        "kilometers": {
            "estimated_diameter_min": 0.040230458,
            "estimated_diameter_max": 0.0899580388
        },
        "meters": {
            "estimated_diameter_min": 40.2304579834,
            "estimated_diameter_max": 89.9580388169
        },
        "miles": {
            "estimated_diameter_min": 0.0249980399,
            "estimated_diameter_max": 0.0558973165
        },
        "feet": {
            "estimated_diameter_min": 131.9896957704,
            "estimated_diameter_max": 295.1379320721
        }
    },
    "is_potentially_hazardous_asteroid": false,
    "close_approach_data": [
        {
            "close_approach_date": "2014-10-19",
            "close_approach_date_full": "2014-Oct-19 07:34",
            "epoch_date_close_approach": 1413704040000,
            "relative_velocity": {
                "kilometers_per_second": "2.8636529558",
                "kilometers_per_hour": "10309.1506409008",
                "miles_per_hour": "6405.7052968419"
            },
            "miss_distance": {
                "astronomical": "0.1300340595",
                "lunar": "50.5832491455",
                "kilometers": "19452818.328653265",
                "miles": "12087420.808274457"
            },
            "orbiting_body": "Earth"
        }
    ],
    "orbital_data": {
        "orbit_id": "9",
        "orbit_determination_date": "2017-04-06 08:37:39",
        "first_observation_date": "2014-10-30",
        "last_observation_date": "2014-11-20",
        "data_arc_in_days": 21,
        "observations_used": 29,
        "orbit_uncertainty": "8",
        "minimum_orbit_intersection": ".129686",
        "jupiter_tisserand_invariant": "4.071",
        "epoch_osculation": "2456965.5",
        "eccentricity": ".355047444169046",
        "semi_major_axis": "1.739816027677741",
        "inclination": "1.779203369008299",
        "ascending_node_longitude": "270.2128151270072",
        "orbital_period": "838.211119781534",
        "perihelion_distance": "1.122098793726417",
        "perihelion_argument": "117.9056804875417",
        "aphelion_distance": "2.357533261629065",
        "perihelion_time": "2456952.824622338611",
        "mean_anomaly": "5.443898142617514",
        "mean_motion": ".4294860703993382",
        "equinox": "J2000",
        "orbit_class": {
            "orbit_class_type": "AMO",
            "orbit_class_description": "Near-Earth asteroid orbits similar to that of 1221 Amor",
            "orbit_class_range": "1.017 AU < q (perihelion) < 1.3 AU"
        }
    },
    "is_sentry_object": false
}